start=new Date('2022-11-16T00:00:00.000Z').valueOf();
sats=[{"SITE":"AFETR","REV_AT_EPOCH":"8148","RA_OF_ASC_NODE":"143.1498","TLE_LINE2":"2 48675  53.0538 143.1498 0001414  66.1146 293.9990 15.06383453 81480","FILE":"3657961","BSTAR":"0.00008777000000","DECAY_DATE":null,"NORAD_CAT_ID":"48675","EPOCH":"2022-11-15T18:35:30.711264","MEAN_ANOMALY":"293.9990","MEAN_MOTION_DOT":"0.00001026","GP_ID":"217904907","ELEMENT_SET_NO":"999","COUNTRY_CODE":"US","CENTER_NAME":"EARTH","OBJECT_TYPE":"PAYLOAD","TIME_SYSTEM":"UTC","REF_FRAME":"TEME","PERIAPSIS":"546.285","APOAPSIS":"548.244","ARG_OF_PERICENTER":"66.1146","ECCENTRICITY":"0.00014140","TLE_LINE1":"1 48675U 21044AP  22319.77466101  .00001026  00000-0  87770-4 0  9992","INCLINATION":"53.0538","CLASSIFICATION_TYPE":"U","EPHEMERIS_TYPE":"0","MEAN_ELEMENT_THEORY":"SGP4","OBJECT_ID":"2021-044AP","PERIOD":"95.593","LAUNCH_DATE":"2021-05-26","RCS_SIZE":"MEDIUM","OBJECT_NAME":"STARLINK-2737","MEAN_MOTION":"15.06383453","SEMIMAJOR_AXIS":"6925.399","MEAN_MOTION_DDOT":"0.0000000000000"},{"ECCENTRICITY":"0.00014140","ARG_OF_PERICENTER":"86.0985","TLE_LINE1":"1 48676U 21044AQ  22319.83730964  .00000037  00000-0  21406-4 0  9996","INCLINATION":"53.0544","EPHEMERIS_TYPE":"0","CLASSIFICATION_TYPE":"U","MEAN_ELEMENT_THEORY":"SGP4","OBJECT_ID":"2021-044AQ","PERIOD":"95.593","RCS_SIZE":"LARGE","OBJECT_NAME":"STARLINK-2746","LAUNCH_DATE":"2021-05-26","SEMIMAJOR_AXIS":"6925.368","MEAN_MOTION":"15.06393554","MEAN_MOTION_DDOT":"0.0000000000000","SITE":"AFETR","REV_AT_EPOCH":"8149","TLE_LINE2":"2 48676  53.0544 142.8606 0001414  86.0985 274.0166 15.06393554 81496","RA_OF_ASC_NODE":"142.8606","FILE":"3657961","BSTAR":"0.00002140600000","DECAY_DATE":null,"EPOCH":"2022-11-15T20:05:43.552896","MEAN_ANOMALY":"274.0166","NORAD_CAT_ID":"48676","MEAN_MOTION_DOT":"0.00000037","ELEMENT_SET_NO":"999","COUNTRY_CODE":"US","CENTER_NAME":"EARTH","GP_ID":"217904658","OBJECT_TYPE":"PAYLOAD","TIME_SYSTEM":"UTC","REF_FRAME":"TEME","APOAPSIS":"548.213","PERIAPSIS":"546.254"},{"RA_OF_ASC_NODE":"142.8794","TLE_LINE2":"2 48677  53.0534 142.8794 0001285  69.5817 290.5310 15.06397542 81495","FILE":"3657961","REV_AT_EPOCH":"8149","SITE":"AFETR","NORAD_CAT_ID":"48677","EPOCH":"2022-11-15T19:59:04.060032","MEAN_ANOMALY":"290.5310","DECAY_DATE":null,"BSTAR":"0.00052048000000","OBJECT_TYPE":"PAYLOAD","GP_ID":"217903906","ELEMENT_SET_NO":"999","COUNTRY_CODE":"US","CENTER_NAME":"EARTH","MEAN_MOTION_DOT":"0.00007479","PERIAPSIS":"546.331","APOAPSIS":"548.111","TIME_SYSTEM":"UTC","REF_FRAME":"TEME","TLE_LINE1":"1 48677U 21044AR  22319.83268588  .00007479  00000-0  52048-3 0  9997","ARG_OF_PERICENTER":"69.5817","ECCENTRICITY":"0.00012850","MEAN_ELEMENT_THEORY":"SGP4","EPHEMERIS_TYPE":"0","CLASSIFICATION_TYPE":"U","INCLINATION":"53.0534","LAUNCH_DATE":"2021-05-26","OBJECT_NAME":"STARLINK-2719","RCS_SIZE":"LARGE","PERIOD":"95.592","OBJECT_ID":"2021-044AR","MEAN_MOTION_DDOT":"0.0000000000000","MEAN_MOTION":"15.06397542","SEMIMAJOR_AXIS":"6925.356"},{"MEAN_ELEMENT_THEORY":"SGP4","INCLINATION":"53.0549","CLASSIFICATION_TYPE":"U","EPHEMERIS_TYPE":"0","ECCENTRICITY":"0.00013140","ARG_OF_PERICENTER":"74.4148","TLE_LINE1":"1 48678U 21044AS  22319.82993287  .00001834  00000-0  14197-3 0  9990","MEAN_MOTION_DDOT":"0.0000000000000","SEMIMAJOR_AXIS":"6925.362","MEAN_MOTION":"15.06395708","RCS_SIZE":"LARGE","OBJECT_NAME":"STARLINK-2615","LAUNCH_DATE":"2021-05-26","OBJECT_ID":"2021-044AS","PERIOD":"95.592","DECAY_DATE":null,"MEAN_ANOMALY":"285.6986","EPOCH":"2022-11-15T19:55:06.199968","NORAD_CAT_ID":"48678","BSTAR":"0.00014197000000","TLE_LINE2":"2 48678  53.0549 142.9041 0001314  74.4148 285.6986 15.06395708 81499","RA_OF_ASC_NODE":"142.9041","FILE":"3657961","SITE":"AFETR","REV_AT_EPOCH":"8149","APOAPSIS":"548.137","PERIAPSIS":"546.317","TIME_SYSTEM":"UTC","REF_FRAME":"TEME","COUNTRY_CODE":"US","CENTER_NAME":"EARTH","ELEMENT_SET_NO":"999","GP_ID":"217904156","OBJECT_TYPE":"PAYLOAD","MEAN_MOTION_DOT":"0.00001834"},{"MEAN_MOTION":"15.06402214","SEMIMAJOR_AXIS":"6925.342","MEAN_MOTION_DDOT":"0.0000000000000","PERIOD":"95.592","OBJECT_ID":"2021-044AT","LAUNCH_DATE":"2021-05-26","OBJECT_NAME":"STARLINK-2648","RCS_SIZE":"LARGE","CLASSIFICATION_TYPE":"U","EPHEMERIS_TYPE":"0","INCLINATION":"53.0537","MEAN_ELEMENT_THEORY":"SGP4","TLE_LINE1":"1 48679U 21044AT  22319.82627335 -.00001221  00000-0 -63074-4 0  9990","ARG_OF_PERICENTER":"96.3336","ECCENTRICITY":"0.00014930","REF_FRAME":"TEME","TIME_SYSTEM":"UTC","PERIAPSIS":"546.173","APOAPSIS":"548.241","MEAN_MOTION_DOT":"-0.00001221","OBJECT_TYPE":"PAYLOAD","GP_ID":"217904408","COUNTRY_CODE":"US","ELEMENT_SET_NO":"999","CENTER_NAME":"EARTH","BSTAR":"-0.00006307400000","NORAD_CAT_ID":"48679","EPOCH":"2022-11-15T19:49:50.017440","MEAN_ANOMALY":"263.7823","DECAY_DATE":null,"REV_AT_EPOCH":"8149","SITE":"AFETR","TLE_LINE2":"2 48679  53.0537 142.9185 0001493  96.3336 263.7823 15.06402214 81494","RA_OF_ASC_NODE":"142.9185","FILE":"3657961"},{"BSTAR":"0.00017933000000","DECAY_DATE":null,"MEAN_ANOMALY":"278.7474","EPOCH":"2022-11-15T19:44:29.477760","NORAD_CAT_ID":"48680","SITE":"AFETR","REV_AT_EPOCH":"8149","TLE_LINE2":"2 48680  53.0530 142.9315 0001543  81.3689 278.7474 15.06405722 81490","RA_OF_ASC_NODE":"142.9315","FILE":"3657961","REF_FRAME":"TEME","TIME_SYSTEM":"UTC","APOAPSIS":"548.265","PERIAPSIS":"546.127","MEAN_MOTION_DOT":"0.00002391","ELEMENT_SET_NO":"999","COUNTRY_CODE":"US","CENTER_NAME":"EARTH","GP_ID":"217905158","OBJECT_TYPE":"PAYLOAD","INCLINATION":"53.0530","EPHEMERIS_TYPE":"0","CLASSIFICATION_TYPE":"U","MEAN_ELEMENT_THEORY":"SGP4","ECCENTRICITY":"0.00015430","ARG_OF_PERICENTER":"81.3689","TLE_LINE1":"1 48680U 21044AU  22319.82256340  .00002391  00000-0  17933-3 0  9995","SEMIMAJOR_AXIS":"6925.331","MEAN_MOTION":"15.06405722","MEAN_MOTION_DDOT":"0.0000000000000","OBJECT_ID":"2021-044AU","PERIOD":"95.592","RCS_SIZE":"LARGE","OBJECT_NAME":"STARLINK-2649","LAUNCH_DATE":"2021-05-26"},{"MEAN_MOTION_DOT":"0.00003203","CENTER_NAME":"EARTH","COUNTRY_CODE":"US","ELEMENT_SET_NO":"999","GP_ID":"217903407","OBJECT_TYPE":"PAYLOAD","REF_FRAME":"TEME","TIME_SYSTEM":"UTC","APOAPSIS":"548.597","PERIAPSIS":"545.851","SITE":"AFETR","REV_AT_EPOCH":"8190","FILE":"3657961","TLE_LINE2":"2 48681  53.0561 113.1754 0001982 103.3402 256.7808 15.06396589 81900","RA_OF_ASC_NODE":"113.1754","BSTAR":"0.00023387000000","DECAY_DATE":null,"MEAN_ANOMALY":"256.7808","EPOCH":"2022-11-15T19:43:11.575200","NORAD_CAT_ID":"48681","OBJECT_ID":"2021-044AV","PERIOD":"95.592","RCS_SIZE":"LARGE","OBJECT_NAME":"STARLINK-2725","LAUNCH_DATE":"2021-05-26","SEMIMAJOR_AXIS":"6925.359","MEAN_MOTION":"15.06396589","MEAN_MOTION_DDOT":"0.0000000000000","ECCENTRICITY":"0.00019820","ARG_OF_PERICENTER":"103.3402","TLE_LINE1":"1 48681U 21044AV  22319.82166175  .00003203  00000-0  23387-3 0  9995","INCLINATION":"53.0561","CLASSIFICATION_TYPE":"U","EPHEMERIS_TYPE":"0","MEAN_ELEMENT_THEORY":"SGP4"},{"MEAN_ELEMENT_THEORY":"SGP4","EPHEMERIS_TYPE":"0","CLASSIFICATION_TYPE":"U","INCLINATION":"53.0557","TLE_LINE1":"1 48682U 21044AW  22319.68620114 -.00000593  00000-0 -20905-4 0  9993","ARG_OF_PERICENTER":"81.7150","ECCENTRICITY":"0.00013790","MEAN_MOTION_DDOT":"0.0000000000000","MEAN_MOTION":"15.06393843","SEMIMAJOR_AXIS":"6925.367","LAUNCH_DATE":"2021-05-26","RCS_SIZE":"LARGE","OBJECT_NAME":"STARLINK-2743","PERIOD":"95.593","OBJECT_ID":"2021-044AW","NORAD_CAT_ID":"48682","EPOCH":"2022-11-15T16:28:07.778496","MEAN_ANOMALY":"278.3995","DECAY_DATE":null,"BSTAR":"-0.00002090500000","FILE":"3657961","TLE_LINE2":"2 48682  53.0557 103.7093 0001379  81.7150 278.3995 15.06393843 82027","RA_OF_ASC_NODE":"103.7093","REV_AT_EPOCH":"8202","SITE":"AFETR","PERIAPSIS":"546.277","APOAPSIS":"548.187","TIME_SYSTEM":"UTC","REF_FRAME":"TEME","OBJECT_TYPE":"PAYLOAD","GP_ID":"217903657","ELEMENT_SET_NO":"999","COUNTRY_CODE":"US","CENTER_NAME":"EARTH","MEAN_MOTION_DOT":"-0.00000593"},{"LAUNCH_DATE":"2021-05-26","RCS_SIZE":"LARGE","OBJECT_NAME":"STARLINK-2756","OBJECT_ID":"2021-044AX","PERIOD":"95.592","MEAN_MOTION_DDOT":"0.0000000000000","MEAN_MOTION":"15.06394333","SEMIMAJOR_AXIS":"6925.366","ARG_OF_PERICENTER":"76.5426","ECCENTRICITY":"0.00014830","TLE_LINE1":"1 48683U 21044AX  22319.77464342 -.00000517  00000-0 -15842-4 0  9993","MEAN_ELEMENT_THEORY":"SGP4","INCLINATION":"53.0545","EPHEMERIS_TYPE":"0","CLASSIFICATION_TYPE":"U","GP_ID":"217904908","ELEMENT_SET_NO":"999","COUNTRY_CODE":"US","CENTER_NAME":"EARTH","OBJECT_TYPE":"PAYLOAD","MEAN_MOTION_DOT":"-0.00000517","PERIAPSIS":"546.204","APOAPSIS":"548.258","TIME_SYSTEM":"UTC","REF_FRAME":"TEME","TLE_LINE2":"2 48683  53.0545 103.1588 0001483  76.5426 283.5728 15.06394333 82041","RA_OF_ASC_NODE":"103.1588","FILE":"3657961","SITE":"AFETR","REV_AT_EPOCH":"8204","DECAY_DATE":null,"NORAD_CAT_ID":"48683","EPOCH":"2022-11-15T18:35:29.191488","MEAN_ANOMALY":"283.5728","BSTAR":"-0.00001584200000"},{"OBJECT_TYPE":"PAYLOAD","GP_ID":"217904659","COUNTRY_CODE":"US","ELEMENT_SET_NO":"999","CENTER_NAME":"EARTH","MEAN_MOTION_DOT":"0.00001158","PERIAPSIS":"546.216","APOAPSIS":"548.173","REF_FRAME":"TEME","TIME_SYSTEM":"UTC","TLE_LINE2":"2 48684  53.0545 118.6911 0001413  98.5583 261.5566 15.06406295 81826","RA_OF_ASC_NODE":"118.6911","FILE":"3657961","REV_AT_EPOCH":"8182","SITE":"AFETR","NORAD_CAT_ID":"48684","MEAN_ANOMALY":"261.5566","EPOCH":"2022-11-15T17:32:30.296544","DECAY_DATE":null,"BSTAR":"0.00009663400000","LAUNCH_DATE":"2021-05-26","RCS_SIZE":"LARGE","OBJECT_NAME":"STARLINK-2741","PERIOD":"95.592","OBJECT_ID":"2021-044AY","MEAN_MOTION_DDOT":"0.0000000000000","MEAN_MOTION":"15.06406295","SEMIMAJOR_AXIS":"6925.329","TLE_LINE1":"1 48684U 21044AY  22319.73090621  .00001158  00000-0  96634-4 0  9993","ARG_OF_PERICENTER":"98.5583","ECCENTRICITY":"0.00014130","MEAN_ELEMENT_THEORY":"SGP4","CLASSIFICATION_TYPE":"U","EPHEMERIS_TYPE":"0","INCLINATION":"53.0545"}];
